[{"OBJECT_NAME":"RANGE-A","OBJECT_ID":"2018-099R","EPOCH":"2026-03-09T16:56:29.908608","MEAN_MOTION":15.1245864,"ECCENTRICITY":0.00096737,"INCLINATION":97.4107,"RA_OF_ASC_NODE":114.1927,"ARG_OF_PERICENTER":340.4473,"MEAN_ANOMALY":19.6386,"EPHEMERIS_TYPE":0,"CLASSIFICATION_TYPE":"U","NORAD_CAT_ID":43773,"ELEMENT_SET_NO":999,"REV_AT_EPOCH":39745,"BSTAR":0.00032165687,"MEAN_MOTION_DOT":5.536e-5,"MEAN_MOTION_DDOT":0},{"OBJECT_NAME":"STARLINK-4758","OBJECT_ID":"2022-114C","EPOCH":"2026-03-09T22:10:34.844160","MEAN_MOTION":15.08837521,"ECCENTRICITY":0.0001241,"INCLINATION":53.2172,"RA_OF_ASC_NODE":303.2911,"ARG_OF_PERICENTER":83.3214,"MEAN_ANOMALY":276.7919,"EPHEMERIS_TYPE":0,"CLASSIFICATION_TYPE":"U","NORAD_CAT_ID":53820,"ELEMENT_SET_NO":999,"REV_AT_EPOCH":19286,"BSTAR":-3.8139958e-5,"MEAN_MOTION_DOT":-8.95e-6,"MEAN_MOTION_DDOT":0}]
